{"fetched_at":"2026-03-29T16:36:15Z","count":15609,"tles":[{"name":"STARLINK-32915","line1":"1 63152U 25043W   26087.78662283  .00024455  00000+0  89492-3 0  9990","line2":"2 63152  43.0017 275.2045 0001296 264.4021  95.6683 15.27592457 60208","category":"Starlink"}]}